0 SL-6 R/B(2)
1 09850U 77010E   13280.39398605 -.00000181  00000-0  00000+0 0  9118
2 09850 064.0955 088.6828 7091714 247.2819 086.5683 02.02360044266703
0 SL-6 R/B(2)
1 09850U 77010E   13286.79644632  .00000759  00000-0  00000+0 0  9123
2 09850 064.0933 087.8793 7095565 247.2583 070.6715 02.02356100266839
0 SL-6 R/B(2)
1 09850U 77010E   13289.70863750  .00001093  00000-0  00000+0 0  9134
2 09850 064.0925 087.5127 7097303 247.2456 032.1633 02.02358106266895
0 SL-6 R/B(2)
1 09850U 77010E   13293.17153287  .00001297  00000-0  00000+0 0  9144
2 09850 064.0931 087.0778 7099377 247.2278 034.8838 02.02363570266969
